{
  "norad_id": 55664,
  "name": "STARLINK-5480",
  "history": [
    {
      "epoch": "2026-03-28T18:59:20.042016Z",
      "apogee_km": 574.4848002327326,
      "perigee_km": 569.6257817982378,
      "latitude_deg": -4.30417106981956e-05,
      "longitude_deg": 5.341193699044504,
      "height_km": 574.5029063824868,
      "semi_major_axis_km": 6950.192291015484,
      "eccentricity": 0.00034956,
      "inclination_deg": 69.9983,
      "raan_deg": 116.3813,
      "arg_perigee_deg": 269.533,
      "mean_anomaly_deg": 90.5428,
      "mean_motion_rev_day": 14.98330194
    },
    {
      "epoch": "2026-03-29T04:36:08.705952Z",
      "apogee_km": 574.5051552736886,
      "perigee_km": 569.6247234718603,
      "latitude_deg": -6.979646685263602e-05,
      "longitude_deg": -140.26609551587012,
      "height_km": 574.5340830419782,
      "semi_major_axis_km": 6950.201939372774,
      "eccentricity": 0.0003511,
      "inclination_deg": 69.9983,
      "raan_deg": 115.3716,
      "arg_perigee_deg": 269.0299,
      "mean_anomaly_deg": 91.0457,
      "mean_motion_rev_day": 14.98327074
    },
    {
      "epoch": "2026-03-30T04:38:09.441312Z",
      "apogee_km": 574.5004233272184,
      "perigee_km": 569.608878443325,
      "latitude_deg": 1.2076932181543706e-05,
      "longitude_deg": -144.28105155937712,
      "height_km": 574.5381076566289,
      "semi_major_axis_km": 6950.191650885271,
      "eccentricity": 0.0003519,
      "inclination_deg": 69.9982,
      "raan_deg": 112.8467,
      "arg_perigee_deg": 268.6967,
      "mean_anomaly_deg": 91.3789,
      "mean_motion_rev_day": 14.98330401
    },
    {
      "epoch": "2026-03-30T06:14:17.513952Z",
      "apogee_km": 574.5033739545415,
      "perigee_km": 569.6068246167515,
      "latitude_deg": 5.1348457206763054e-05,
      "longitude_deg": -168.54887502244145,
      "height_km": 574.5379462932648,
      "semi_major_axis_km": 6950.192099285646,
      "eccentricity": 0.00035226,
      "inclination_deg": 69.9982,
      "raan_deg": 112.6783,
      "arg_perigee_deg": 268.7123,
      "mean_anomaly_deg": 91.3633,
      "mean_motion_rev_day": 14.98330256
    },
    {
      "epoch": "2026-03-30T11:02:41.602272Z",
      "apogee_km": 574.5010250739651,
      "perigee_km": 569.5905819196378,
      "latitude_deg": -2.219541881318392e-05,
      "longitude_deg": 118.64832679173435,
      "height_km": 574.437486870849,
      "semi_major_axis_km": 6950.182803496801,
      "eccentricity": 0.00035326,
      "inclination_deg": 69.9983,
      "raan_deg": 112.1733,
      "arg_perigee_deg": 270.8438,
      "mean_anomaly_deg": 89.2316,
      "mean_motion_rev_day": 14.98333262
    },
    {
      "epoch": "2026-03-30T19:03:21.894624Z",
      "apogee_km": 574.5342177872872,
      "perigee_km": 569.5702536313584,
      "latitude_deg": 1.6036944954966323e-05,
      "longitude_deg": -2.6901517594889497,
      "height_km": 574.5138547549401,
      "semi_major_axis_km": 6950.189235709323,
      "eccentricity": 0.00035711,
      "inclination_deg": 69.9981,
      "raan_deg": 111.3317,
      "arg_perigee_deg": 269.2208,
      "mean_anomaly_deg": 90.8542,
      "mean_motion_rev_day": 14.98331182
    },
    {
      "epoch": "2026-03-31T17:29:15.128448Z",
      "apogee_km": 574.4835253385518,
      "perigee_km": 569.7378962016383,
      "latitude_deg": 3.2100612404205344e-05,
      "longitude_deg": 17.560220642059445,
      "height_km": 574.6945166244753,
      "semi_major_axis_km": 6950.247710770095,
      "eccentricity": 0.0003414,
      "inclination_deg": 69.9981,
      "raan_deg": 108.9751,
      "arg_perigee_deg": 266.2281,
      "mean_anomaly_deg": 93.8488,
      "mean_motion_rev_day": 14.98312273
    },
    {
      "epoch": "2026-03-31T23:54:26.592768Z",
      "apogee_km": 576.0781843391651,
      "perigee_km": 570.8703152552671,
      "latitude_deg": -4.174770064319155e-05,
      "longitude_deg": -79.67292763728223,
      "height_km": 573.8555800898014,
      "semi_major_axis_km": 6951.611249797216,
      "eccentricity": 0.00037458,
      "inclination_deg": 69.998,
      "raan_deg": 108.3034,
      "arg_perigee_deg": 321.7348,
      "mean_anomaly_deg": 38.3544,
      "mean_motion_rev_day": 14.9787146
    },
    {
      "epoch": "2026-04-03T09:35:18.838176Z",
      "apogee_km": 575.3407831069253,
      "perigee_km": 571.7277214902551,
      "latitude_deg": 3.704126177412335e-05,
      "longitude_deg": 126.67963173437349,
      "height_km": 574.4749383443575,
      "semi_major_axis_km": 6951.67125229859,
      "eccentricity": 0.00025987,
      "inclination_deg": 69.9977,
      "raan_deg": 102.2425,
      "arg_perigee_deg": 325.2431,
      "mean_anomaly_deg": 34.8558,
      "mean_motion_rev_day": 14.97852067
    },
    {
      "epoch": "2026-04-04T08:00:30.223296Z",
      "apogee_km": 574.511708594342,
      "perigee_km": 569.6013968493435,
      "latitude_deg": -5.394872066002557e-05,
      "longitude_deg": 147.10261076359856,
      "height_km": 574.5852531153563,
      "semi_major_axis_km": 6950.193552721842,
      "eccentricity": 0.00035325,
      "inclination_deg": 69.9979,
      "raan_deg": 99.8837,
      "arg_perigee_deg": 267.6453,
      "mean_anomaly_deg": 92.4301,
      "mean_motion_rev_day": 14.98329786
    },
    {
      "epoch": "2026-04-05T03:15:23.994432Z",
      "apogee_km": 577.0215186636333,
      "perigee_km": 573.2133602722251,
      "latitude_deg": 8.76184415039782e-07,
      "longitude_deg": -144.42811501473318,
      "height_km": 575.9142449686714,
      "semi_major_axis_km": 6953.254439467929,
      "eccentricity": 0.00027384,
      "inclination_deg": 69.9979,
      "raan_deg": 97.8675,
      "arg_perigee_deg": 31.5024,
      "mean_anomaly_deg": 328.6298,
      "mean_motion_rev_day": 14.97340527
    },
    {
      "epoch": "2026-04-05T09:38:04.248384Z",
      "apogee_km": 574.2611602974612,
      "perigee_km": 567.0135886248981,
      "latitude_deg": -5.4639115031075285e-05,
      "longitude_deg": 118.96411068842042,
      "height_km": 572.5119656272383,
      "semi_major_axis_km": 6948.774374461179,
      "eccentricity": 0.0005215,
      "inclination_deg": 69.9981,
      "raan_deg": 97.1894,
      "arg_perigee_deg": 278.809,
      "mean_anomaly_deg": 81.2478,
      "mean_motion_rev_day": 14.98788825
    },
    {
      "epoch": "2026-04-06T04:00:05.000256Z",
      "apogee_km": 574.3786495119648,
      "perigee_km": 569.4712107830883,
      "latitude_deg": 14.384634620561782,
      "longitude_deg": 15.450452427269623,
      "height_km": 574.1873881048024,
      "semi_major_axis_km": 6950.061930147526,
      "eccentricity": 0.00035305,
      "inclination_deg": 69.9998,
      "raan_deg": 95.2601,
      "arg_perigee_deg": 268.0784,
      "mean_anomaly_deg": 256.6116,
      "mean_motion_rev_day": 14.9837235
    },
    {
      "epoch": "2026-04-07T09:44:04.995168Z",
      "apogee_km": 577.9280379960983,
      "perigee_km": 572.6948726886067,
      "latitude_deg": 4.97091694453015e-05,
      "longitude_deg": 110.44142679488458,
      "height_km": 575.1332606492604,
      "semi_major_axis_km": 6953.448455342352,
      "eccentricity": 0.0003763,
      "inclination_deg": 69.9985,
      "raan_deg": 92.1452,
      "arg_perigee_deg": 6.4889,
      "mean_anomaly_deg": 353.6318,
      "mean_motion_rev_day": 14.97277859
    },
    {
      "epoch": "2026-04-08T12:55:57.698400Z",
      "apogee_km": 574.0785411648885,
      "perigee_km": 564.7746419056484,
      "latitude_deg": -1.2139602447791237e-05,
      "longitude_deg": 58.4935231324509,
      "height_km": 569.5774780075005,
      "semi_major_axis_km": 6947.563591535268,
      "eccentricity": 0.00066958,
      "inclination_deg": 69.9993,
      "raan_deg": 89.2839,
      "arg_perigee_deg": 299.339,
      "mean_anomaly_deg": 60.71,
      "mean_motion_rev_day": 14.99180643
    },
    {
      "epoch": "2026-04-09T20:00:01.999008Z",
      "apogee_km": 574.4688485684719,
      "perigee_km": 569.8566296615945,
      "latitude_deg": 40.16894962163526,
      "longitude_deg": 110.14140644457319,
      "height_km": 578.9086833521228,
      "semi_major_axis_km": 6950.299739115033,
      "eccentricity": 0.0003318,
      "inclination_deg": 70.0003,
      "raan_deg": 86.0174,
      "arg_perigee_deg": 269.9965,
      "mean_anomaly_deg": 226.7935,
      "mean_motion_rev_day": 14.98295449
    },
    {
      "epoch": "2026-04-10T05:02:47.442912Z",
      "apogee_km": 582.2519540658568,
      "perigee_km": 572.8026840883904,
      "latitude_deg": 8.170181181860237e-06,
      "longitude_deg": 170.9451408861047,
      "height_km": 579.1010747911587,
      "semi_major_axis_km": 6955.664319077124,
      "eccentricity": 0.00067925,
      "inclination_deg": 70.0023,
      "raan_deg": 85.0902,
      "arg_perigee_deg": 79.8113,
      "mean_anomaly_deg": 280.3811,
      "mean_motion_rev_day": 14.96562435
    }
  ]
}